start=new Date('2023-05-31T00:00:00.000Z').valueOf();
sats=[{"TIME_SYSTEM":"UTC","INCLINATION":"53.2152","OBJECT_TYPE":"PAYLOAD","MEAN_MOTION":"15.08850547","APOAPSIS":"540.411","ARG_OF_PERICENTER":"91.3728","REV_AT_EPOCH":"3996","EPHEMERIS_TYPE":"0","TLE_LINE1":"1 53856U 22114AQ  23150.24202828  .00001827  00000-0  13278-3 0  9998","OBJECT_NAME":"STARLINK-4795","EPOCH":"2023-05-30T05:48:31.243392","NORAD_CAT_ID":"53856","OBJECT_ID":"2022-114AQ","MEAN_MOTION_DDOT":"0.0000000000000","COUNTRY_CODE":"US","FILE":"3920920","MEAN_MOTION_DOT":"0.00001827","CENTER_NAME":"EARTH","ELEMENT_SET_NO":"999","REF_FRAME":"TEME","PERIAPSIS":"539.015","SEMIMAJOR_AXIS":"6917.848","MEAN_ANOMALY":"268.7380","DECAY_DATE":null,"PERIOD":"95.437","TLE_LINE2":"2 53856  53.2152 158.2283 0001009  91.3728 268.7380 15.08850547 39960","RA_OF_ASC_NODE":"158.2283","GP_ID":"232821264","RCS_SIZE":"LARGE","LAUNCH_DATE":"2022-09-19","ECCENTRICITY":"0.00010090","MEAN_ELEMENT_THEORY":"SGP4","BSTAR":"0.00013278000000","CLASSIFICATION_TYPE":"U","SITE":"AFETR"},{"MEAN_ELEMENT_THEORY":"SGP4","SITE":"AFETR","CLASSIFICATION_TYPE":"U","BSTAR":"-0.00002359100000","LAUNCH_DATE":"2022-09-19","RCS_SIZE":"LARGE","ECCENTRICITY":"0.00008040","DECAY_DATE":null,"PERIOD":"95.438","GP_ID":"232821516","RA_OF_ASC_NODE":"167.6345","TLE_LINE2":"2 53857  53.2155 167.6345 0000804  80.7983 279.3100 15.08839457 39835","ELEMENT_SET_NO":"999","MEAN_ANOMALY":"279.3100","SEMIMAJOR_AXIS":"6917.882","REF_FRAME":"TEME","PERIAPSIS":"539.191","FILE":"3920920","COUNTRY_CODE":"US","MEAN_MOTION_DDOT":"0.0000000000000","OBJECT_ID":"2022-114AR","CENTER_NAME":"EARTH","MEAN_MOTION_DOT":"-0.00000663","EPOCH":"2023-05-30T06:18:53.212896","OBJECT_NAME":"STARLINK-4809","TLE_LINE1":"1 53857U 22114AR  23150.26311589 -.00000663  00000-0 -23591-4 0  9995","NORAD_CAT_ID":"53857","APOAPSIS":"540.303","REV_AT_EPOCH":"3983","EPHEMERIS_TYPE":"0","ARG_OF_PERICENTER":"80.7983","TIME_SYSTEM":"UTC","MEAN_MOTION":"15.08839457","OBJECT_TYPE":"PAYLOAD","INCLINATION":"53.2155"},{"GP_ID":"232822264","TLE_LINE2":"2 53858  53.2149 158.2975 0001058  88.3254 271.7860 15.08834585 39961","RA_OF_ASC_NODE":"158.2975","DECAY_DATE":null,"PERIOD":"95.438","SEMIMAJOR_AXIS":"6917.897","MEAN_ANOMALY":"271.7860","REF_FRAME":"TEME","PERIAPSIS":"539.030","ELEMENT_SET_NO":"999","CLASSIFICATION_TYPE":"U","SITE":"AFETR","BSTAR":"0.00000922940000","MEAN_ELEMENT_THEORY":"SGP4","ECCENTRICITY":"0.00010580","RCS_SIZE":"LARGE","LAUNCH_DATE":"2022-09-19","EPHEMERIS_TYPE":"0","REV_AT_EPOCH":"3996","ARG_OF_PERICENTER":"88.3254","APOAPSIS":"540.494","OBJECT_TYPE":"PAYLOAD","MEAN_MOTION":"15.08834585","INCLINATION":"53.2149","TIME_SYSTEM":"UTC","CENTER_NAME":"EARTH","MEAN_MOTION_DOT":"-0.00000141","COUNTRY_CODE":"US","FILE":"3920920","OBJECT_ID":"2022-114AS","MEAN_MOTION_DDOT":"0.0000000000000","NORAD_CAT_ID":"53858","EPOCH":"2023-05-30T06:04:25.558176","OBJECT_NAME":"STARLINK-4798","TLE_LINE1":"1 53858U 22114AS  23150.25307359 -.00000141  00000-0  92294-5 0  9992"},{"ARG_OF_PERICENTER":"89.2566","REV_AT_EPOCH":"3990","EPHEMERIS_TYPE":"0","APOAPSIS":"540.439","INCLINATION":"53.2161","MEAN_MOTION":"15.08835423","OBJECT_TYPE":"PAYLOAD","TIME_SYSTEM":"UTC","MEAN_MOTION_DOT":"0.00000042","CENTER_NAME":"EARTH","OBJECT_ID":"2022-114AT","MEAN_MOTION_DDOT":"0.0000000000000","COUNTRY_CODE":"US","FILE":"3920920","NORAD_CAT_ID":"53859","TLE_LINE1":"1 53859U 22114AT  23150.26910882  .00000042  00000-0  20697-4 0  9991","OBJECT_NAME":"STARLINK-4790","EPOCH":"2023-05-30T06:27:31.002048","TLE_LINE2":"2 53859  53.2161 162.6878 0000982  89.2566 270.8538 15.08835423 39906","RA_OF_ASC_NODE":"162.6878","GP_ID":"232820515","DECAY_DATE":null,"PERIOD":"95.438","REF_FRAME":"TEME","PERIAPSIS":"539.080","SEMIMAJOR_AXIS":"6917.894","MEAN_ANOMALY":"270.8538","ELEMENT_SET_NO":"999","BSTAR":"0.00002069700000","CLASSIFICATION_TYPE":"U","SITE":"AFETR","MEAN_ELEMENT_THEORY":"SGP4","ECCENTRICITY":"0.00009820","RCS_SIZE":"LARGE","LAUNCH_DATE":"2022-09-19"},{"ELEMENT_SET_NO":"999","REF_FRAME":"TEME","PERIAPSIS":"539.039","SEMIMAJOR_AXIS":"6917.884","MEAN_ANOMALY":"282.1675","DECAY_DATE":null,"PERIOD":"95.438","TLE_LINE2":"2 53860  53.2150 157.9508 0001027  77.9432 282.1675 15.08838815 39737","RA_OF_ASC_NODE":"157.9508","GP_ID":"232820765","RCS_SIZE":"LARGE","LAUNCH_DATE":"2022-09-19","ECCENTRICITY":"0.00010270","MEAN_ELEMENT_THEORY":"SGP4","BSTAR":"-0.00000207320000","CLASSIFICATION_TYPE":"U","SITE":"AFETR","TIME_SYSTEM":"UTC","INCLINATION":"53.2150","MEAN_MOTION":"15.08838815","OBJECT_TYPE":"PAYLOAD","APOAPSIS":"540.459","ARG_OF_PERICENTER":"77.9432","EPHEMERIS_TYPE":"0","REV_AT_EPOCH":"3973","OBJECT_NAME":"STARLINK-4799","TLE_LINE1":"1 53860U 22114AU  23150.31194307 -.00000321  00000-0 -20732-5 0  9998","EPOCH":"2023-05-30T07:29:11.881248","NORAD_CAT_ID":"53860","OBJECT_ID":"2022-114AU","MEAN_MOTION_DDOT":"0.0000000000000","COUNTRY_CODE":"US","FILE":"3920920","MEAN_MOTION_DOT":"-0.00000321","CENTER_NAME":"EARTH"},{"RCS_SIZE":"LARGE","LAUNCH_DATE":"2022-09-19","ECCENTRICITY":"0.00010210","MEAN_ELEMENT_THEORY":"SGP4","BSTAR":"0.00003334800000","CLASSIFICATION_TYPE":"U","SITE":"AFETR","ELEMENT_SET_NO":"999","PERIAPSIS":"539.054","REF_FRAME":"TEME","SEMIMAJOR_AXIS":"6917.896","MEAN_ANOMALY":"271.5343","DECAY_DATE":null,"PERIOD":"95.438","TLE_LINE2":"2 53861  53.2147 157.9752 0001021  88.5766 271.5343 15.08834998 39975","RA_OF_ASC_NODE":"157.9752","GP_ID":"232822016","OBJECT_NAME":"STARLINK-4781","TLE_LINE1":"1 53861U 22114AV  23150.31562843  .00000243  00000-0  33348-4 0  9990","EPOCH":"2023-05-30T07:34:30.296352","NORAD_CAT_ID":"53861","OBJECT_ID":"2022-114AV","MEAN_MOTION_DDOT":"0.0000000000000","COUNTRY_CODE":"US","FILE":"3920920","MEAN_MOTION_DOT":"0.00000243","CENTER_NAME":"EARTH","TIME_SYSTEM":"UTC","INCLINATION":"53.2147","MEAN_MOTION":"15.08834998","OBJECT_TYPE":"PAYLOAD","APOAPSIS":"540.467","ARG_OF_PERICENTER":"88.5766","REV_AT_EPOCH":"3997","EPHEMERIS_TYPE":"0"},{"NORAD_CAT_ID":"53862","EPOCH":"2023-05-30T10:29:21.287616","OBJECT_NAME":"STARLINK-4792","TLE_LINE1":"1 53862U 22114AW  23150.43705194  .00000929  00000-0  76441-4 0  9994","CENTER_NAME":"EARTH","MEAN_MOTION_DOT":"0.00000929","COUNTRY_CODE":"US","FILE":"3920920","OBJECT_ID":"2022-114AW","MEAN_MOTION_DDOT":"0.0000000000000","MEAN_MOTION":"15.08828920","OBJECT_TYPE":"PAYLOAD","INCLINATION":"53.2157","TIME_SYSTEM":"UTC","EPHEMERIS_TYPE":"0","REV_AT_EPOCH":"3999","ARG_OF_PERICENTER":"72.0072","APOAPSIS":"540.299","ECCENTRICITY":"0.00007520","RCS_SIZE":"LARGE","LAUNCH_DATE":"2022-09-19","CLASSIFICATION_TYPE":"U","SITE":"AFETR","BSTAR":"0.00007644100000","MEAN_ELEMENT_THEORY":"SGP4","SEMIMAJOR_AXIS":"6917.914","MEAN_ANOMALY":"288.1002","PERIAPSIS":"539.259","REF_FRAME":"TEME","ELEMENT_SET_NO":"999","GP_ID":"232821765","TLE_LINE2":"2 53862  53.2157 157.3133 0000752  72.0072 288.1002 15.08828920 39998","RA_OF_ASC_NODE":"157.3133","DECAY_DATE":null,"PERIOD":"95.438"},{"RCS_SIZE":"LARGE","LAUNCH_DATE":"2022-09-19","ECCENTRICITY":"0.00009800","MEAN_ELEMENT_THEORY":"SGP4","BSTAR":"0.00000607260000","CLASSIFICATION_TYPE":"U","SITE":"AFETR","ELEMENT_SET_NO":"999","REF_FRAME":"TEME","PERIAPSIS":"539.080","SEMIMAJOR_AXIS":"6917.893","MEAN_ANOMALY":"275.1338","DECAY_DATE":null,"PERIOD":"95.438","TLE_LINE2":"2 53863  53.2151 158.2569 0000980  84.9766 275.1338 15.08835800 39961","RA_OF_ASC_NODE":"158.2569","GP_ID":"232821015","TLE_LINE1":"1 53863U 22114AX  23150.24666113 -.00000191  00000-0  60726-5 0  9993","OBJECT_NAME":"STARLINK-4788","EPOCH":"2023-05-30T05:55:11.521632","NORAD_CAT_ID":"53863","OBJECT_ID":"2022-114AX","MEAN_MOTION_DDOT":"0.0000000000000","COUNTRY_CODE":"US","FILE":"3920920","MEAN_MOTION_DOT":"-0.00000191","CENTER_NAME":"EARTH","TIME_SYSTEM":"UTC","INCLINATION":"53.2151","MEAN_MOTION":"15.08835800","OBJECT_TYPE":"PAYLOAD","APOAPSIS":"540.436","ARG_OF_PERICENTER":"84.9766","EPHEMERIS_TYPE":"0","REV_AT_EPOCH":"3996"},{"CENTER_NAME":"EARTH","MEAN_MOTION_DOT":"-0.00000064","FILE":"3920920","COUNTRY_CODE":"US","MEAN_MOTION_DDOT":"0.0000000000000","OBJECT_ID":"2022-114AY","NORAD_CAT_ID":"53864","EPOCH":"2023-05-30T09:25:41.136672","OBJECT_NAME":"STARLINK-4779","TLE_LINE1":"1 53864U 22114AY  23150.39283723 -.00000064  00000-0  14078-4 0  9999","EPHEMERIS_TYPE":"0","REV_AT_EPOCH":"3999","ARG_OF_PERICENTER":"70.3479","APOAPSIS":"540.249","OBJECT_TYPE":"PAYLOAD","MEAN_MOTION":"15.08835433","INCLINATION":"53.2158","TIME_SYSTEM":"UTC","SITE":"AFETR","CLASSIFICATION_TYPE":"U","BSTAR":"0.00001407800000","MEAN_ELEMENT_THEORY":"SGP4","ECCENTRICITY":"0.00007080","LAUNCH_DATE":"2022-09-19","RCS_SIZE":"LARGE","GP_ID":"232821265","RA_OF_ASC_NODE":"157.0425","TLE_LINE2":"2 53864  53.2158 157.0425 0000708  70.3479 289.7589 15.08835433 39999","PERIOD":"95.438","DECAY_DATE":null,"MEAN_ANOMALY":"289.7589","SEMIMAJOR_AXIS":"6917.894","PERIAPSIS":"539.270","REF_FRAME":"TEME","ELEMENT_SET_NO":"999"},{"NORAD_CAT_ID":"53865","EPOCH":"2023-05-30T17:54:26.818272","TLE_LINE1":"1 53865U 22114AZ  23150.74614373  .00000597  00000-0  55621-4 0  9997","OBJECT_NAME":"STARLINK-4785","CENTER_NAME":"EARTH","MEAN_MOTION_DOT":"0.00000597","FILE":"3921192","COUNTRY_CODE":"US","MEAN_MOTION_DDOT":"0.0000000000000","OBJECT_ID":"2022-114AZ","OBJECT_TYPE":"PAYLOAD","MEAN_MOTION":"15.08841338","INCLINATION":"53.2155","TIME_SYSTEM":"UTC","REV_AT_EPOCH":"4004","EPHEMERIS_TYPE":"0","ARG_OF_PERICENTER":"83.7725","APOAPSIS":"540.571","ECCENTRICITY":"0.00011990","LAUNCH_DATE":"2022-09-19","RCS_SIZE":"LARGE","SITE":"AFETR","CLASSIFICATION_TYPE":"U","BSTAR":"0.00005562100000","MEAN_ELEMENT_THEORY":"SGP4","MEAN_ANOMALY":"276.3404","SEMIMAJOR_AXIS":"6917.876","PERIAPSIS":"538.912","REF_FRAME":"TEME","ELEMENT_SET_NO":"999","GP_ID":"232854694","RA_OF_ASC_NODE":"155.6891","TLE_LINE2":"2 53865  53.2155 155.6891 0001199  83.7725 276.3404 15.08841338 40042","DECAY_DATE":null,"PERIOD":"95.437"}];
